[{"OBJECT_NAME":"UNKNOWN","OBJECT_ID":"","EPOCH":"2023-09-15T11:47:59.539776","MEAN_MOTION":14.46426067,"ECCENTRICITY":0.0015686,"INCLINATION":98.4579,"RA_OF_ASC_NODE":96.9945,"ARG_OF_PERICENTER":156.426,"MEAN_ANOMALY":203.7654,"EPHEMERIS_TYPE":0,"CLASSIFICATION_TYPE":"U","NORAD_CAT_ID":82381,"ELEMENT_SET_NO":999,"REV_AT_EPOCH":39115,"BSTAR":0.0021189,"MEAN_MOTION_DOT":7.589e-5,"MEAN_MOTION_DDOT":0},{"OBJECT_NAME":"UNKNOWN","OBJECT_ID":"","EPOCH":"2023-09-14T23:01:51.133440","MEAN_MOTION":14.89535914,"ECCENTRICITY":0.0007236,"INCLINATION":86.6718,"RA_OF_ASC_NODE":145.6331,"ARG_OF_PERICENTER":240.5523,"MEAN_ANOMALY":119.4982,"EPHEMERIS_TYPE":0,"CLASSIFICATION_TYPE":"U","NORAD_CAT_ID":82402,"ELEMENT_SET_NO":999,"REV_AT_EPOCH":33189,"BSTAR":0.00049527,"MEAN_MOTION_DOT":4.747e-5,"MEAN_MOTION_DDOT":0},{"OBJECT_NAME":"UNKNOWN","OBJECT_ID":"","EPOCH":"2023-09-13T02:45:55.056384","MEAN_MOTION":13.76444767,"ECCENTRICITY":0.0067801,"INCLINATION":66.6542,"RA_OF_ASC_NODE":149.8335,"ARG_OF_PERICENTER":224.128,"MEAN_ANOMALY":135.4369,"EPHEMERIS_TYPE":0,"CLASSIFICATION_TYPE":"U","NORAD_CAT_ID":82410,"ELEMENT_SET_NO":999,"REV_AT_EPOCH":47362,"BSTAR":0.00040631,"MEAN_MOTION_DOT":3.29e-6,"MEAN_MOTION_DDOT":0},{"OBJECT_NAME":"UNKNOWN","OBJECT_ID":"","EPOCH":"2023-09-15T08:07:40.534176","MEAN_MOTION":14.38671165,"ECCENTRICITY":0.0036994,"INCLINATION":63.172,"RA_OF_ASC_NODE":244.6021,"ARG_OF_PERICENTER":29.3787,"MEAN_ANOMALY":330.9353,"EPHEMERIS_TYPE":0,"CLASSIFICATION_TYPE":"U","NORAD_CAT_ID":82428,"ELEMENT_SET_NO":999,"REV_AT_EPOCH":30735,"BSTAR":0.044158,"MEAN_MOTION_DOT":0.00139655,"MEAN_MOTION_DDOT":0},{"OBJECT_NAME":"UNKNOWN","OBJECT_ID":"1993-036","EPOCH":"2023-09-14T19:54:10.192032","MEAN_MOTION":14.52570567,"ECCENTRICITY":0.0061154,"INCLINATION":74.0064,"RA_OF_ASC_NODE":97.0454,"ARG_OF_PERICENTER":101.4422,"MEAN_ANOMALY":259.3616,"EPHEMERIS_TYPE":0,"CLASSIFICATION_TYPE":"U","NORAD_CAT_ID":82432,"ELEMENT_SET_NO":999,"REV_AT_EPOCH":36360,"BSTAR":0.00054516,"MEAN_MOTION_DOT":2.256e-5,"MEAN_MOTION_DDOT":0},{"OBJECT_NAME":"UNKNOWN","OBJECT_ID":"","EPOCH":"2023-09-15T11:38:55.767552","MEAN_MOTION":14.89513882,"ECCENTRICITY":0.0008515,"INCLINATION":85.8713,"RA_OF_ASC_NODE":271.9843,"ARG_OF_PERICENTER":325.6182,"MEAN_ANOMALY":34.4492,"EPHEMERIS_TYPE":0,"CLASSIFICATION_TYPE":"U","NORAD_CAT_ID":82448,"ELEMENT_SET_NO":999,"REV_AT_EPOCH":31453,"BSTAR":0.0003928,"MEAN_MOTION_DOT":3.77e-5,"MEAN_MOTION_DDOT":0},{"OBJECT_NAME":"UNKNOWN","OBJECT_ID":"","EPOCH":"2023-09-13T03:13:51.411648","MEAN_MOTION":12.39594446,"ECCENTRICITY":0.0093768,"INCLINATION":102.0521,"RA_OF_ASC_NODE":206.1483,"ARG_OF_PERICENTER":286.4251,"MEAN_ANOMALY":72.6522,"EPHEMERIS_TYPE":0,"CLASSIFICATION_TYPE":"U","NORAD_CAT_ID":82453,"ELEMENT_SET_NO":999,"REV_AT_EPOCH":44425,"BSTAR":0.00034235,"MEAN_MOTION_DOT":1.0e-8,"MEAN_MOTION_DDOT":0},{"OBJECT_NAME":"UNKNOWN","OBJECT_ID":"","EPOCH":"2023-09-15T02:50:14.917344","MEAN_MOTION":14.12893087,"ECCENTRICITY":0.0069982,"INCLINATION":66.5086,"RA_OF_ASC_NODE":141.3679,"ARG_OF_PERICENTER":206.7302,"MEAN_ANOMALY":153.0173,"EPHEMERIS_TYPE":0,"CLASSIFICATION_TYPE":"U","NORAD_CAT_ID":82458,"ELEMENT_SET_NO":999,"REV_AT_EPOCH":49383,"BSTAR":0.0019414,"MEAN_MOTION_DOT":3.621e-5,"MEAN_MOTION_DDOT":0},{"OBJECT_NAME":"UNKNOWN","OBJECT_ID":"","EPOCH":"2023-09-14T18:49:40.857024","MEAN_MOTION":14.56363739,"ECCENTRICITY":0.0065091,"INCLINATION":70.9943,"RA_OF_ASC_NODE":82.7232,"ARG_OF_PERICENTER":291.7623,"MEAN_ANOMALY":77.8557,"EPHEMERIS_TYPE":0,"CLASSIFICATION_TYPE":"U","NORAD_CAT_ID":82464,"ELEMENT_SET_NO":999,"REV_AT_EPOCH":51541,"BSTAR":0.003486,"MEAN_MOTION_DOT":0.00015901,"MEAN_MOTION_DDOT":0},{"OBJECT_NAME":"UNKNOWN","OBJECT_ID":"","EPOCH":"2023-09-14T22:47:23.618688","MEAN_MOTION":13.55321483,"ECCENTRICITY":0.004548,"INCLINATION":99.4553,"RA_OF_ASC_NODE":307.1834,"ARG_OF_PERICENTER":109.6094,"MEAN_ANOMALY":250.9962,"EPHEMERIS_TYPE":0,"CLASSIFICATION_TYPE":"U","NORAD_CAT_ID":82484,"ELEMENT_SET_NO":999,"REV_AT_EPOCH":47956,"BSTAR":0.00039683,"MEAN_MOTION_DOT":2.35e-6,"MEAN_MOTION_DDOT":0},{"OBJECT_NAME":"UNKNOWN","OBJECT_ID":"","EPOCH":"2023-09-03T21:19:51.699648","MEAN_MOTION":14.07851122,"ECCENTRICITY":0.0141186,"INCLINATION":70.9727,"RA_OF_ASC_NODE":306.728,"ARG_OF_PERICENTER":290.0994,"MEAN_ANOMALY":68.4978,"EPHEMERIS_TYPE":0,"CLASSIFICATION_TYPE":"U","NORAD_CAT_ID":82500,"ELEMENT_SET_NO":999,"REV_AT_EPOCH":50157,"BSTAR":0.0016054,"MEAN_MOTION_DOT":2.937e-5,"MEAN_MOTION_DDOT":0},{"OBJECT_NAME":"UNKNOWN","OBJECT_ID":"","EPOCH":"2023-09-15T12:06:23.477760","MEAN_MOTION":14.59426547,"ECCENTRICITY":0.0020377,"INCLINATION":86.364,"RA_OF_ASC_NODE":69.6132,"ARG_OF_PERICENTER":79.8158,"MEAN_ANOMALY":280.5349,"EPHEMERIS_TYPE":0,"CLASSIFICATION_TYPE":"U","NORAD_CAT_ID":82517,"ELEMENT_SET_NO":999,"REV_AT_EPOCH":30509,"BSTAR":0.0052986,"MEAN_MOTION_DOT":0.00025264,"MEAN_MOTION_DDOT":0},{"OBJECT_NAME":"UNKNOWN","OBJECT_ID":"","EPOCH":"2023-09-15T04:04:11.237664","MEAN_MOTION":14.1940354,"ECCENTRICITY":0.0165393,"INCLINATION":73.2877,"RA_OF_ASC_NODE":293.1272,"ARG_OF_PERICENTER":93.1748,"MEAN_ANOMALY":329.5251,"EPHEMERIS_TYPE":0,"CLASSIFICATION_TYPE":"U","NORAD_CAT_ID":82524,"ELEMENT_SET_NO":999,"REV_AT_EPOCH":46012,"BSTAR":0.0020603,"MEAN_MOTION_DOT":4.941e-5,"MEAN_MOTION_DDOT":0},{"OBJECT_NAME":"UNKNOWN","OBJECT_ID":"","EPOCH":"2023-09-11T18:26:21.259104","MEAN_MOTION":13.39419579,"ECCENTRICITY":0.024082,"INCLINATION":99.8025,"RA_OF_ASC_NODE":353.5562,"ARG_OF_PERICENTER":84.8375,"MEAN_ANOMALY":63.4238,"EPHEMERIS_TYPE":0,"CLASSIFICATION_TYPE":"U","NORAD_CAT_ID":82529,"ELEMENT_SET_NO":999,"REV_AT_EPOCH":47949,"BSTAR":0.00051081,"MEAN_MOTION_DOT":2.85e-6,"MEAN_MOTION_DDOT":0},{"OBJECT_NAME":"UNKNOWN","OBJECT_ID":"","EPOCH":"2023-09-12T04:09:52.934976","MEAN_MOTION":11.30791675,"ECCENTRICITY":0.0165135,"INCLINATION":64.8828,"RA_OF_ASC_NODE":64.1654,"ARG_OF_PERICENTER":90.0813,"MEAN_ANOMALY":271.9035,"EPHEMERIS_TYPE":0,"CLASSIFICATION_TYPE":"U","NORAD_CAT_ID":82545,"ELEMENT_SET_NO":999,"REV_AT_EPOCH":34590,"BSTAR":0.00044822,"MEAN_MOTION_DOT":-2.6e-7,"MEAN_MOTION_DDOT":0},{"OBJECT_NAME":"UNKNOWN","OBJECT_ID":"","EPOCH":"2023-09-15T11:01:56.254368","MEAN_MOTION":13.86910499,"ECCENTRICITY":0.0010566,"INCLINATION":100.0036,"RA_OF_ASC_NODE":132.5519,"ARG_OF_PERICENTER":313.4476,"MEAN_ANOMALY":171.2462,"EPHEMERIS_TYPE":0,"CLASSIFICATION_TYPE":"U","NORAD_CAT_ID":82560,"ELEMENT_SET_NO":999,"REV_AT_EPOCH":49814,"BSTAR":0.0012768,"MEAN_MOTION_DOT":1.443e-5,"MEAN_MOTION_DDOT":0},{"OBJECT_NAME":"UNKNOWN","OBJECT_ID":"","EPOCH":"2023-09-15T05:13:01.853184","MEAN_MOTION":13.98264253,"ECCENTRICITY":0.0517091,"INCLINATION":63.1018,"RA_OF_ASC_NODE":53.8306,"ARG_OF_PERICENTER":35.2322,"MEAN_ANOMALY":136.4742,"EPHEMERIS_TYPE":0,"CLASSIFICATION_TYPE":"U","NORAD_CAT_ID":82561,"ELEMENT_SET_NO":999,"REV_AT_EPOCH":49723,"BSTAR":0.002037,"MEAN_MOTION_DOT":9.225e-5,"MEAN_MOTION_DDOT":0},{"OBJECT_NAME":"UNKNOWN","OBJECT_ID":"","EPOCH":"2023-09-14T02:49:26.931648","MEAN_MOTION":14.30266568,"ECCENTRICITY":0.0105711,"INCLINATION":66.7718,"RA_OF_ASC_NODE":139.2731,"ARG_OF_PERICENTER":202.4292,"MEAN_ANOMALY":157.2168,"EPHEMERIS_TYPE":0,"CLASSIFICATION_TYPE":"U","NORAD_CAT_ID":82597,"ELEMENT_SET_NO":999,"REV_AT_EPOCH":51139,"BSTAR":0.00065876,"MEAN_MOTION_DOT":1.733e-5,"MEAN_MOTION_DDOT":0},{"OBJECT_NAME":"UNKNOWN","OBJECT_ID":"","EPOCH":"2023-09-13T05:39:25.798464","MEAN_MOTION":14.47135921,"ECCENTRICITY":0.0039241,"INCLINATION":74.0306,"RA_OF_ASC_NODE":342.8866,"ARG_OF_PERICENTER":130.0665,"MEAN_ANOMALY":230.3946,"EPHEMERIS_TYPE":0,"CLASSIFICATION_TYPE":"U","NORAD_CAT_ID":82617,"ELEMENT_SET_NO":999,"REV_AT_EPOCH":51789,"BSTAR":0.00030525,"MEAN_MOTION_DOT":1.097e-5,"MEAN_MOTION_DDOT":0},{"OBJECT_NAME":"UNKNOWN","OBJECT_ID":"","EPOCH":"2023-09-14T08:14:19.055040","MEAN_MOTION":13.14599799,"ECCENTRICITY":0.0013799,"INCLINATION":82.4746,"RA_OF_ASC_NODE":112.8532,"ARG_OF_PERICENTER":334.4416,"MEAN_ANOMALY":148.5987,"EPHEMERIS_TYPE":0,"CLASSIFICATION_TYPE":"U","NORAD_CAT_ID":82627,"ELEMENT_SET_NO":999,"REV_AT_EPOCH":47096,"BSTAR":0.0014519,"MEAN_MOTION_DOT":5.51e-6,"MEAN_MOTION_DDOT":0},{"OBJECT_NAME":"UNKNOWN","OBJECT_ID":"","EPOCH":"2023-09-15T00:18:39.002688","MEAN_MOTION":14.01492923,"ECCENTRICITY":0.0146339,"INCLINATION":98.9923,"RA_OF_ASC_NODE":166.0644,"ARG_OF_PERICENTER":0.4142,"MEAN_ANOMALY":359.712,"EPHEMERIS_TYPE":0,"CLASSIFICATION_TYPE":"U","NORAD_CAT_ID":82642,"ELEMENT_SET_NO":999,"REV_AT_EPOCH":50107,"BSTAR":0.0017239,"MEAN_MOTION_DOT":2.817e-5,"MEAN_MOTION_DDOT":0},{"OBJECT_NAME":"UNKNOWN","OBJECT_ID":"1999-057","EPOCH":"2023-09-15T02:46:58.589760","MEAN_MOTION":14.15520841,"ECCENTRICITY":0.0221784,"INCLINATION":98.1795,"RA_OF_ASC_NODE":18.6123,"ARG_OF_PERICENTER":266.165,"MEAN_ANOMALY":91.4144,"EPHEMERIS_TYPE":0,"CLASSIFICATION_TYPE":"U","NORAD_CAT_ID":82683,"ELEMENT_SET_NO":999,"REV_AT_EPOCH":34611,"BSTAR":0.00079485,"MEAN_MOTION_DOT":1.929e-5,"MEAN_MOTION_DDOT":0},{"OBJECT_NAME":"UNKNOWN","OBJECT_ID":"","EPOCH":"2023-09-14T21:16:27.138144","MEAN_MOTION":13.62886872,"ECCENTRICITY":0.0042749,"INCLINATION":100.5338,"RA_OF_ASC_NODE":139.6591,"ARG_OF_PERICENTER":262.3718,"MEAN_ANOMALY":97.2564,"EPHEMERIS_TYPE":0,"CLASSIFICATION_TYPE":"U","NORAD_CAT_ID":82693,"ELEMENT_SET_NO":999,"REV_AT_EPOCH":44180,"BSTAR":0.0033161,"MEAN_MOTION_DOT":2.558e-5,"MEAN_MOTION_DDOT":0},{"OBJECT_NAME":"UNKNOWN","OBJECT_ID":"","EPOCH":"2023-09-14T04:21:20.084544","MEAN_MOTION":13.23561114,"ECCENTRICITY":0.07192,"INCLINATION":61.6109,"RA_OF_ASC_NODE":178.8903,"ARG_OF_PERICENTER":351.8682,"MEAN_ANOMALY":7.1143,"EPHEMERIS_TYPE":0,"CLASSIFICATION_TYPE":"U","NORAD_CAT_ID":82698,"ELEMENT_SET_NO":999,"REV_AT_EPOCH":42950,"BSTAR":0.0027645,"MEAN_MOTION_DOT":4.707e-5,"MEAN_MOTION_DDOT":0}]
